STARLINK-5668           
1 55350U 23013V   26068.04669350 -.00000240  00000+0 -26631-5 0  9992
2 55350  43.0045 303.7464 0001164 265.9049  94.1661 15.02534619171619
SEDNA-1                 
1 60580U 24149DS  26068.76583836  .00008721  00000+0  60834-3 0  9998
2 60580  97.6673 149.7617 0008344 330.8481  29.2278 15.05597965 85421
